start=new Date('2023-06-07T00:00:00.000Z').valueOf();
sats=[{"EPHEMERIS_TYPE":"0","REV_AT_EPOCH":"7840","INCLINATION":"53.2188","MEAN_ELEMENT_THEORY":"SGP4","REF_FRAME":"TEME","GP_ID":"233357154","SEMIMAJOR_AXIS":"6917.884","OBJECT_NAME":"STARLINK-3327","PERIAPSIS":"538.776","ELEMENT_SET_NO":"999","FILE":"3926571","MEAN_MOTION":"15.08838801","OBJECT_TYPE":"PAYLOAD","COUNTRY_CODE":"US","MEAN_MOTION_DOT":"-0.00000279","NORAD_CAT_ID":"50819","TLE_LINE2":"2 50819  53.2188   9.2805 0001407  87.3479 272.7674 15.08838801 78402","OBJECT_ID":"2022-001S","APOAPSIS":"540.722","ARG_OF_PERICENTER":"87.3479","RA_OF_ASC_NODE":"9.2805","MEAN_ANOMALY":"272.7674","RCS_SIZE":"LARGE","TIME_SYSTEM":"UTC","MEAN_MOTION_DDOT":"0.0000000000000","TLE_LINE1":"1 50819U 22001S   23157.78740173 -.00000279  00000-0  55352-6 0  9998","PERIOD":"95.438","CLASSIFICATION_TYPE":"U","LAUNCH_DATE":"2022-01-06","CENTER_NAME":"EARTH","DECAY_DATE":null,"EPOCH":"2023-06-06T18:53:51.509472","SITE":"AFETR","BSTAR":"0.00000055352000","ECCENTRICITY":"0.00014070"},{"REV_AT_EPOCH":"7839","EPHEMERIS_TYPE":"0","INCLINATION":"53.2185","REF_FRAME":"TEME","MEAN_ELEMENT_THEORY":"SGP4","SEMIMAJOR_AXIS":"6917.881","OBJECT_NAME":"STARLINK-3339","FILE":"3926571","ELEMENT_SET_NO":"999","PERIAPSIS":"538.791","GP_ID":"233357405","MEAN_MOTION_DOT":"-0.00001314","COUNTRY_CODE":"US","MEAN_MOTION":"15.08839849","OBJECT_TYPE":"PAYLOAD","OBJECT_ID":"2022-001T","ARG_OF_PERICENTER":"109.0449","APOAPSIS":"540.701","TLE_LINE2":"2 50820  53.2185   9.3601 0001380 109.0449 251.0693 15.08839849 78397","NORAD_CAT_ID":"50820","MEAN_ANOMALY":"251.0693","RCS_SIZE":"LARGE","RA_OF_ASC_NODE":"9.3601","CLASSIFICATION_TYPE":"U","LAUNCH_DATE":"2022-01-06","MEAN_MOTION_DDOT":"0.0000000000000","TLE_LINE1":"1 50820U 22001T   23157.76899675 -.00001314  00000-0 -64464-4 0  9994","TIME_SYSTEM":"UTC","PERIOD":"95.438","BSTAR":"-0.00006446400000","SITE":"AFETR","ECCENTRICITY":"0.00013800","CENTER_NAME":"EARTH","EPOCH":"2023-06-06T18:27:21.319200","DECAY_DATE":null},{"RA_OF_ASC_NODE":"9.4333","MEAN_ANOMALY":"275.1170","RCS_SIZE":"LARGE","NORAD_CAT_ID":"50821","TLE_LINE2":"2 50821  53.2179   9.4333 0001160  84.9954 275.1170 15.08833610 78399","OBJECT_ID":"2022-001U","ARG_OF_PERICENTER":"84.9954","APOAPSIS":"540.567","CENTER_NAME":"EARTH","EPOCH":"2023-06-06T18:07:32.903616","DECAY_DATE":null,"SITE":"AFETR","BSTAR":"-0.00000584120000","ECCENTRICITY":"0.00011600","MEAN_MOTION_DDOT":"0.0000000000000","TLE_LINE1":"1 50821U 22001U   23157.75524194 -.00000381  00000-0 -58412-5 0  9995","TIME_SYSTEM":"UTC","PERIOD":"95.438","CLASSIFICATION_TYPE":"U","LAUNCH_DATE":"2022-01-06","MEAN_ELEMENT_THEORY":"SGP4","REF_FRAME":"TEME","REV_AT_EPOCH":"7839","EPHEMERIS_TYPE":"0","INCLINATION":"53.2179","MEAN_MOTION":"15.08833610","OBJECT_TYPE":"PAYLOAD","COUNTRY_CODE":"US","MEAN_MOTION_DOT":"-0.00000381","GP_ID":"233356153","SEMIMAJOR_AXIS":"6917.900","OBJECT_NAME":"STARLINK-3346","ELEMENT_SET_NO":"999","FILE":"3926571","PERIAPSIS":"538.962"},{"MEAN_MOTION":"15.08840013","OBJECT_TYPE":"PAYLOAD","COUNTRY_CODE":"US","MEAN_MOTION_DOT":"-0.00001346","GP_ID":"233356403","SEMIMAJOR_AXIS":"6917.880","OBJECT_NAME":"STARLINK-3343","PERIAPSIS":"539.025","FILE":"3926571","ELEMENT_SET_NO":"999","MEAN_ELEMENT_THEORY":"SGP4","REF_FRAME":"TEME","EPHEMERIS_TYPE":"0","REV_AT_EPOCH":"7839","INCLINATION":"53.2182","CENTER_NAME":"EARTH","EPOCH":"2023-06-06T18:16:46.002720","DECAY_DATE":null,"SITE":"AFETR","ECCENTRICITY":"0.00010410","BSTAR":"-0.00006647500000","TIME_SYSTEM":"UTC","TLE_LINE1":"1 50822U 22001V   23157.76164355 -.00001346  00000-0 -66475-4 0  9995","MEAN_MOTION_DDOT":"0.0000000000000","PERIOD":"95.438","CLASSIFICATION_TYPE":"U","LAUNCH_DATE":"2022-01-06","RA_OF_ASC_NODE":"9.3962","MEAN_ANOMALY":"269.7090","RCS_SIZE":"LARGE","TLE_LINE2":"2 50822  53.2182   9.3962 0001041  90.4022 269.7090 15.08840013 78392","NORAD_CAT_ID":"50822","OBJECT_ID":"2022-001V","APOAPSIS":"540.466","ARG_OF_PERICENTER":"90.4022"},{"COUNTRY_CODE":"US","MEAN_MOTION_DOT":"0.00000484","MEAN_MOTION":"15.08841341","OBJECT_TYPE":"PAYLOAD","OBJECT_NAME":"STARLINK-3334","SEMIMAJOR_AXIS":"6917.876","PERIAPSIS":"538.986","FILE":"3926571","ELEMENT_SET_NO":"999","GP_ID":"233357654","REF_FRAME":"TEME","MEAN_ELEMENT_THEORY":"SGP4","EPHEMERIS_TYPE":"0","REV_AT_EPOCH":"7839","INCLINATION":"53.2174","SITE":"AFETR","BSTAR":"0.00004845800000","ECCENTRICITY":"0.00010920","CENTER_NAME":"EARTH","EPOCH":"2023-06-06T17:29:04.091712","DECAY_DATE":null,"CLASSIFICATION_TYPE":"U","LAUNCH_DATE":"2022-01-06","TIME_SYSTEM":"UTC","MEAN_MOTION_DDOT":"0.0000000000000","TLE_LINE1":"1 50823U 22001W   23157.72851958  .00000484  00000-0  48458-4 0  9995","PERIOD":"95.437","MEAN_ANOMALY":"279.6116","RCS_SIZE":"LARGE","RA_OF_ASC_NODE":"9.5441","OBJECT_ID":"2022-001W","APOAPSIS":"540.497","ARG_OF_PERICENTER":"80.5000","TLE_LINE2":"2 50823  53.2174   9.5441 0001092  80.5000 279.6116 15.08841341 78394","NORAD_CAT_ID":"50823"},{"CENTER_NAME":"EARTH","EPOCH":"2023-06-06T18:11:28.248576","DECAY_DATE":null,"SITE":"AFETR","ECCENTRICITY":"0.00011910","BSTAR":"0.00002796800000","TLE_LINE1":"1 50824U 22001X   23157.75796584  .00000157  00000-0  27968-4 0  9992","MEAN_MOTION_DDOT":"0.0000000000000","TIME_SYSTEM":"UTC","PERIOD":"95.438","CLASSIFICATION_TYPE":"U","LAUNCH_DATE":"2022-01-06","RA_OF_ASC_NODE":"9.4112","MEAN_ANOMALY":"270.6182","RCS_SIZE":"LARGE","NORAD_CAT_ID":"50824","TLE_LINE2":"2 50824  53.2187   9.4112 0001191  89.4947 270.6182 15.08829987 78397","OBJECT_ID":"2022-001X","ARG_OF_PERICENTER":"89.4947","APOAPSIS":"540.600","MEAN_MOTION":"15.08829987","OBJECT_TYPE":"PAYLOAD","MEAN_MOTION_DOT":"0.00000157","COUNTRY_CODE":"US","GP_ID":"233357905","SEMIMAJOR_AXIS":"6917.911","OBJECT_NAME":"STARLINK-3340","ELEMENT_SET_NO":"999","FILE":"3926571","PERIAPSIS":"538.952","MEAN_ELEMENT_THEORY":"SGP4","REF_FRAME":"TEME","REV_AT_EPOCH":"7839","EPHEMERIS_TYPE":"0","INCLINATION":"53.2187"},{"CLASSIFICATION_TYPE":"U","LAUNCH_DATE":"2022-01-06","TLE_LINE1":"1 50825U 22001Y   23157.76532086  .00000409  00000-0  43803-4 0  9995","MEAN_MOTION_DDOT":"0.0000000000000","TIME_SYSTEM":"UTC","PERIOD":"95.438","SITE":"AFETR","ECCENTRICITY":"0.00009620","BSTAR":"0.00004380300000","CENTER_NAME":"EARTH","DECAY_DATE":null,"EPOCH":"2023-06-06T18:22:03.722304","OBJECT_ID":"2022-001Y","ARG_OF_PERICENTER":"86.8081","APOAPSIS":"540.417","NORAD_CAT_ID":"50825","TLE_LINE2":"2 50825  53.2189   9.3792 0000962  86.8081 273.3021 15.08837846 78393","MEAN_ANOMALY":"273.3021","RCS_SIZE":"LARGE","RA_OF_ASC_NODE":"9.3792","SEMIMAJOR_AXIS":"6917.887","OBJECT_NAME":"STARLINK-3332","FILE":"3926571","ELEMENT_SET_NO":"999","PERIAPSIS":"539.086","GP_ID":"233356653","COUNTRY_CODE":"US","MEAN_MOTION_DOT":"0.00000409","MEAN_MOTION":"15.08837846","OBJECT_TYPE":"PAYLOAD","REV_AT_EPOCH":"7839","EPHEMERIS_TYPE":"0","INCLINATION":"53.2189","REF_FRAME":"TEME","MEAN_ELEMENT_THEORY":"SGP4"},{"ARG_OF_PERICENTER":"111.5840","APOAPSIS":"540.487","OBJECT_ID":"2022-001Z","NORAD_CAT_ID":"50826","TLE_LINE2":"2 50826  53.2177   9.1773 0001056 111.5840 248.5264 15.08836277 78404","RCS_SIZE":"LARGE","MEAN_ANOMALY":"248.5264","RA_OF_ASC_NODE":"9.1773","LAUNCH_DATE":"2022-01-06","CLASSIFICATION_TYPE":"U","PERIOD":"95.438","TLE_LINE1":"1 50826U 22001Z   23157.80948117  .00000031  00000-0  20029-4 0  9993","MEAN_MOTION_DDOT":"0.0000000000000","TIME_SYSTEM":"UTC","BSTAR":"0.00002002900000","SITE":"AFETR","ECCENTRICITY":"0.00010560","EPOCH":"2023-06-06T19:25:39.173088","DECAY_DATE":null,"CENTER_NAME":"EARTH","INCLINATION":"53.2177","REV_AT_EPOCH":"7840","EPHEMERIS_TYPE":"0","REF_FRAME":"TEME","MEAN_ELEMENT_THEORY":"SGP4","FILE":"3926571","ELEMENT_SET_NO":"999","PERIAPSIS":"539.026","OBJECT_NAME":"STARLINK-3337","SEMIMAJOR_AXIS":"6917.892","GP_ID":"233356903","MEAN_MOTION_DOT":"0.00000031","COUNTRY_CODE":"US","OBJECT_TYPE":"PAYLOAD","MEAN_MOTION":"15.08836277"},{"RA_OF_ASC_NODE":"9.3286","RCS_SIZE":"LARGE","MEAN_ANOMALY":"271.0146","NORAD_CAT_ID":"50827","TLE_LINE2":"2 50827  53.2185   9.3286 0001142  89.0977 271.0146 15.08844545 78396","APOAPSIS":"540.522","ARG_OF_PERICENTER":"89.0977","OBJECT_ID":"2022-001AA","EPOCH":"2023-06-06T18:37:57.552384","DECAY_DATE":null,"CENTER_NAME":"EARTH","ECCENTRICITY":"0.00011420","SITE":"AFETR","BSTAR":"0.00000263820000","PERIOD":"95.437","TIME_SYSTEM":"UTC","TLE_LINE1":"1 50827U 22001AA  23157.77636056 -.00000246  00000-0  26382-5 0  9994","MEAN_MOTION_DDOT":"0.0000000000000","LAUNCH_DATE":"2022-01-06","CLASSIFICATION_TYPE":"U","MEAN_ELEMENT_THEORY":"SGP4","REF_FRAME":"TEME","INCLINATION":"53.2185","EPHEMERIS_TYPE":"0","REV_AT_EPOCH":"7839","OBJECT_TYPE":"PAYLOAD","MEAN_MOTION":"15.08844545","COUNTRY_CODE":"US","MEAN_MOTION_DOT":"-0.00000246","GP_ID":"233357155","PERIAPSIS":"538.941","ELEMENT_SET_NO":"999","FILE":"3926571","SEMIMAJOR_AXIS":"6917.866","OBJECT_NAME":"STARLINK-3329"},{"MEAN_ELEMENT_THEORY":"SGP4","REF_FRAME":"TEME","REV_AT_EPOCH":"7824","EPHEMERIS_TYPE":"0","INCLINATION":"53.2189","MEAN_MOTION":"15.08835499","OBJECT_TYPE":"PAYLOAD","COUNTRY_CODE":"US","MEAN_MOTION_DOT":"0.00000045","GP_ID":"233357406","OBJECT_NAME":"STARLINK-3290","SEMIMAJOR_AXIS":"6917.894","FILE":"3926571","ELEMENT_SET_NO":"999","PERIAPSIS":"539.059","RA_OF_ASC_NODE":"9.2811","MEAN_ANOMALY":"264.4045","RCS_SIZE":"LARGE","TLE_LINE2":"2 50828  53.2189   9.2811 0001012  95.7062 264.4045 15.08835499 78245","NORAD_CAT_ID":"50828","OBJECT_ID":"2022-001AB","ARG_OF_PERICENTER":"95.7062","APOAPSIS":"540.459","CENTER_NAME":"EARTH","DECAY_DATE":null,"EPOCH":"2023-06-06T18:18:07.450272","ECCENTRICITY":"0.00010120","SITE":"AFETR","BSTAR":"0.00002090200000","TLE_LINE1":"1 50828U 22001AB  23157.76258623  .00000045  00000-0  20902-4 0  9991","MEAN_MOTION_DDOT":"0.0000000000000","TIME_SYSTEM":"UTC","PERIOD":"95.438","CLASSIFICATION_TYPE":"U","LAUNCH_DATE":"2022-01-06"}];
